[{"OBJECT_NAME":"STARLINK-34097","OBJECT_ID":"2025-095P","EPOCH":"2026-03-09T07:49:32.924928","MEAN_MOTION":15.2757957,"ECCENTRICITY":6.263e-5,"INCLINATION":42.9972,"RA_OF_ASC_NODE":178.1411,"ARG_OF_PERICENTER":237.0962,"MEAN_ANOMALY":122.9829,"EPHEMERIS_TYPE":0,"CLASSIFICATION_TYPE":"U","NORAD_CAT_ID":63903,"ELEMENT_SET_NO":999,"REV_AT_EPOCH":4772,"BSTAR":0.00096946773,"MEAN_MOTION_DOT":0.00026511,"MEAN_MOTION_DDOT":0},{"OBJECT_NAME":"COSMOS 2251 DEB","OBJECT_ID":"1993-036BTX","EPOCH":"2026-02-28T17:34:44.973408","MEAN_MOTION":15.25753352,"ECCENTRICITY":0.00216382,"INCLINATION":73.9681,"RA_OF_ASC_NODE":229.3494,"ARG_OF_PERICENTER":13.6287,"MEAN_ANOMALY":346.5492,"EPHEMERIS_TYPE":0,"CLASSIFICATION_TYPE":"U","NORAD_CAT_ID":38487,"ELEMENT_SET_NO":999,"REV_AT_EPOCH":67986,"BSTAR":0.0024802785,"MEAN_MOTION_DOT":0.00064261,"MEAN_MOTION_DDOT":0}]
